FENGYUN 1C DEB          
1 33625U 99025DDJ 17345.22929235  .00000262  00000-0  65893-4 0  9993
2 33625  98.8393 347.1726 0301618 240.6688 116.4057 14.36862257523417
